ONEWEB-0128             
1 47274U 20100S   26011.97313233 -.00000373  00000+0 -10717-2 0  9990
2 47274  87.8917  21.7152 0001602  81.7131 278.4179 13.12442420244252
ONEWEB-0129             
1 47275U 20100T   26011.95281488 -.00000063  00000+0 -21021-3 0  9992
2 47275  87.8931  21.6770 0001290 132.6653 227.4585 13.12441515244183
ONEWEB-0130             
1 47276U 20100U   26011.97991540 -.00000229  00000+0 -67306-3 0  9992
2 47276  87.8927  21.6658 0001619  90.0268 270.1046 13.12444948244155
ONEWEB-0131             
1 47277U 20100V   26011.97653099 -.00000311  00000+0 -90015-3 0  9992
2 47277  87.8928  21.6971 0001732  89.1103 271.0224 13.12442723244199
ONEWEB-0132             
1 47278U 20100W   26012.00530871  .00000432  00000+0  11660-2 0  9990
2 47278  87.8923  21.6921 0001709  87.3946 272.7378 13.12440693244090
ONEWEB-0133             
1 47279U 20100X   26011.94588947  .00000227  00000+0  59433-3 0  9993
2 47279  87.8925  21.6655 0001691  84.8478 275.2844 13.12442451244246
ONEWEB-0134             
1 47280U 20100Y   26011.99178518  .00000068  00000+0  15396-3 0  9992
2 47280  87.8930  21.6527 0001501  87.3309 272.7991 13.12445147244221
ONEWEB-0135             
1 47281U 20100Z   26011.96298084 -.00000279  00000+0 -80984-3 0  9992
2 47281  87.8926  21.6972 0001459  83.1684 276.9611 13.12442342244244
